JCSAT-3A                
1 29272U 06033A   26181.54059192 -.00000334  00000+0  00000+0 0  9996
2 29272   0.0131 324.0748 0002520 144.1049 133.0325  1.00270215 47870
KOREASAT 5 (MUGUNGWHA 5)
1 29349U 06034A   26181.53764524 -.00000349  00000+0  00000+0 0  9999
2 29349   1.8179  82.8389 0001980  55.1502  87.2226  1.00270347 41454
DIRECTV 9S              
1 29494U 06043A   26181.59810104 -.00000105  00000+0  00000+0 0  9992
2 29494   2.4537  80.7520 0005435  21.9726 290.0559  1.00271808 51516
OPTUS D1                
1 29495U 06043B   26181.56441891 -.00000176  00000+0  00000+0 0  9991
2 29495   3.0675  79.4983 0003693  12.8289 181.4456  1.00270305 72256
BADR-4                  
1 29526U 06051A   26181.52203054  .00000165  00000+0  00000+0 0  9995
2 29526   2.0376  80.9896 0005347  16.7890  43.1776  1.00270216 51401
WILDBLUE-1              
1 29643U 06054A   26181.60173174 -.00000041  00000+0  00000+0 0  9990
2 29643   2.8360  80.3228 0001723  16.8005 286.9494  1.00271392 53927
SKYNET 5A               
1 30794U 07007B   26181.10624897 -.00000265  00000+0  00000+0 0  9994
2 30794   5.3324  73.5852 0003734  30.7029 307.3479  1.00270216 70829
ANIK F3                 
1 31102U 07009A   26181.60614260  .00000009  00000+0  00000+0 0  9993
2 31102   1.2306  83.7073 0002912  12.9047 281.5610  1.00271170 46693
ASTRA 1L                
1 31306U 07016A   26181.40360841 -.00000175  00000+0  00000+0 0  9993
2 31306   1.3543  81.4906 0005703  20.0351 297.7529  1.00272331 45116
GALAXY 17 (G-17)        
1 31307U 07016B   26180.64290567 -.00000198  00000+0  00000+0 0  9991
2 31307   3.0020  79.7513 0004291  19.8756 324.5360  1.00275661 69922
INTELSAT 11 (IS-11)     
1 32253U 07044B   26181.17232861  .00000084  00000+0  00000+0 0  9998
2 32253   3.5976  78.5195 0003295  86.2589 244.1933  0.99047702 68579
WGS F1 (USA 195)        
1 32258U 07046A   26181.50683403 -.00000256  00000+0  00000+0 0  9996
2 32258   0.0225  72.1044 0000183  35.6185 310.8253  1.00271003 52462
SKYNET 5B               
1 32294U 07056B   26181.30632417  .00000146  00000+0  00000+0 0  9991
2 32294   5.2847  73.3483 0003443  29.4921 310.8921  1.00272553 68325
ASTRA 4A                
1 32299U 07057A   26181.37356764  .00000043  00000+0  00000+0 0  9998
2 32299   0.0123 348.8253 0002653 111.6281 317.2674  1.00272061 51771
HORIZONS-2              
1 32388U 07063B   26181.50059400 -.00000245  00000+0  00000+0 0  9991
2 32388   2.6347  80.4718 0004128  10.4409 294.0530  1.00270096 67943
THURAYA-3               
1 32404U 08001A   26181.10052894  .00000023  00000+0  00000+0 0  9992
2 32404   6.0098  35.8100 0000611 132.0817 212.3113  1.00140891 67612
THOR 5                  
1 32487U 08006A   26181.30121081  .00000002  00000+0  00000+0 0  9992
2 32487   0.0397 243.2760 0002752 219.7984 282.9756  1.00271955 67445
AMC-14                  
1 32708U 08011A   26181.10139561 -.00000104  00000+0  00000+0 0  9998
2 32708  24.0247  20.3646 0040688   8.1962 356.8890  1.00420523 68307
DIRECTV 11              
1 32729U 08013A   26181.59747535 -.00000115  00000+0  00000+0 0  9994
2 32729   0.0118 261.6721 0000347 164.8959 328.0030  1.00269308 45729
ICO G1                  
1 32763U 08016A   26181.14041064 -.00000165  00000+0  00000+0 0  9995
2 32763   5.5315  36.1013 0002242  54.5926 145.2015  1.00271083 66672
VINASAT-1               
1 32767U 08018A   26180.69141917 -.00000317  00000+0  00000+0 0  9997
2 32767   0.0155 326.6573 0001615 139.2527 192.7053  1.00271427 66713
STAR ONE C2             
1 32768U 08018B   26181.50232734 -.00000267  00000+0  00000+0 0  9991
2 32768   1.2733  82.3560 0003040  29.0092 283.0231  1.00269615 66783
AMOS-3                  
1 32794U 08022A   26181.52489056  .00000103  00000+0  00000+0 0  9996
2 32794   0.4883  86.0598 0002685  68.5278   1.8856  1.00483945 82476
GALAXY 18 (G-18)        
1 32951U 08024A   26181.60653131  .00000036  00000+0  00000+0 0  9994
2 32951   0.0183  30.7913 0003217  72.1389 271.0904  1.00271794 45980
ZHONGXING-9             
1 33051U 08028A   26181.46219699 -.00000238  00000+0  00000+0 0  9996
2 33051   0.8023  85.2058 0004041   1.3306  90.7630  1.00270344 66173
SKYNET 5C               
1 33055U 08030A   26181.44039475 -.00000132  00000+0  00000+0 0  9996
2 33055   3.8212  76.8891 0004478  29.8705 312.5005  1.00271605 66085
TURKSAT 3A              
1 33056U 08030B   26181.52350389  .00000157  00000+0  00000+0 0  9992
2 33056   0.0426  74.3204 0005453   5.4612  69.2580  1.00270779 52499
ECHOSTAR 11             
1 33207U 08035A   26181.60095781 -.00000048  00000+0  00000+0 0  9996
2 33207   1.0383  84.0486 0002670   4.6658 296.4948  1.00272236 51344
SUPERBIRD-C2            
1 33274U 08038A   26181.54215192 -.00000298  00000+0  00000+0 0  9993
2 33274   2.3938  81.1079 0006553  31.0877 137.5920  1.00271106105862
INMARSAT 4-F3           
1 33278U 08039A   26181.39072397 -.00000132  00000+0  00000+0 0  9996
2 33278   4.3041  31.6636 0002641  73.2813 216.1694  1.00271209 46673
NIMIQ 4                 
1 33373U 08044A   26181.49894733  .00000000  00000+0  00000+0 0  9998
2 33373   0.0361  56.9543 0001878  46.1819 273.0953  1.00267554 65118
GALAXY 19 (G-19)        
1 33376U 08045A   26181.59607656 -.00000128  00000+0  00000+0 0  9991
2 33376   0.0540 254.5050 0002934 218.1118 283.6294  1.00271890 65030
