OBJECT_NAME,OBJECT_ID,EPOCH,MEAN_MOTION,ECCENTRICITY,INCLINATION,RA_OF_ASC_NODE,ARG_OF_PERICENTER,MEAN_ANOMALY,EPHEMERIS_TYPE,CLASSIFICATION_TYPE,NORAD_CAT_ID,ELEMENT_SET_NO,REV_AT_EPOCH,BSTAR,MEAN_MOTION_DOT,MEAN_MOTION_DDOT
JCSAT-3A,2006-033A,2026-06-30T12:58:27.141888,1.00270215,.00025208,0.0131,324.0748,144.1049,133.0325,0,U,29272,999,4787,0,-.334E-5,0
KOREASAT 5 (MUGUNGWHA 5),2006-034A,2026-06-30T12:54:12.548736,1.00270347,.00019807,1.8179,82.8389,55.1502,87.2226,0,U,29349,999,4145,0,-.349E-5,0
DIRECTV 9S,2006-043A,2026-06-30T14:21:15.929856,1.00271808,.00054356,2.4537,80.7520,21.9726,290.0559,0,U,29494,999,5151,0,-.105E-5,0
OPTUS D1,2006-043B,2026-06-30T13:32:45.793824,1.00270305,.00036933,3.0675,79.4983,12.8289,181.4456,0,U,29495,999,7225,0,-.176E-5,0
BADR-4,2006-051A,2026-06-30T12:31:43.438656,1.00270216,.00053478,2.0376,80.9896,16.7890,43.1776,0,U,29526,999,5140,0,.165E-5,0
WILDBLUE-1,2006-054A,2026-06-30T14:26:29.622336,1.00271392,.00017234,2.8360,80.3228,16.8005,286.9494,0,U,29643,999,5392,0,-.41E-6,0
SKYNET 5A,2007-007B,2026-06-30T02:32:59.911008,1.00270216,.00037348,5.3324,73.5852,30.7029,307.3479,0,U,30794,999,7082,0,-.265E-5,0
ANIK F3,2007-009A,2026-06-30T14:32:50.720640,1.00271170,.00029121,1.2306,83.7073,12.9047,281.5610,0,U,31102,999,4669,0,.9E-7,0
ASTRA 1L,2007-016A,2026-06-30T09:41:11.766624,1.00272331,.00057037,1.3543,81.4906,20.0351,297.7529,0,U,31306,999,4511,0,-.175E-5,0
GALAXY 17 (G-17),2007-016B,2026-06-29T15:25:47.049888,1.00275661,.00042916,3.0020,79.7513,19.8756,324.5360,0,U,31307,999,6992,0,-.198E-5,0
INTELSAT 11 (IS-11),2007-044B,2026-06-30T04:08:09.191904,0.99047702,.0003295,3.5976,78.5195,86.2589,244.1933,0,U,32253,999,6857,0,.84E-6,0
WGS F1 (USA 195),2007-046A,2026-06-30T12:09:50.460192,1.00271003,.00001839,0.0225,72.1044,35.6185,310.8253,0,U,32258,999,5246,0,-.256E-5,0
SKYNET 5B,2007-056B,2026-06-30T07:21:06.408288,1.00272553,.00034435,5.2847,73.3483,29.4921,310.8921,0,U,32294,999,6832,0,.146E-5,0
ASTRA 4A,2007-057A,2026-06-30T08:57:56.244096,1.00272061,.00026534,0.0123,348.8253,111.6281,317.2674,0,U,32299,999,5177,0,.43E-6,0
HORIZONS-2,2007-063B,2026-06-30T12:00:51.321600,1.00270096,.00041281,2.6347,80.4718,10.4409,294.0530,0,U,32388,999,6794,0,-.245E-5,0
THURAYA-3,2008-001A,2026-06-30T02:24:45.700416,1.00140891,.00006116,6.0098,35.8100,132.0817,212.3113,0,U,32404,999,6761,0,.23E-6,0
THOR 5,2008-006A,2026-06-30T07:13:44.613984,1.00271955,.00027524,0.0397,243.2760,219.7984,282.9756,0,U,32487,999,6744,0,.2E-7,0
AMC-14,2008-011A,2026-06-30T02:26:00.580704,1.00420523,.00406883,24.0247,20.3646,8.1962,356.8890,0,U,32708,999,6830,0,-.104E-5,0
DIRECTV 11,2008-013A,2026-06-30T14:20:21.870240,1.00269308,.00003472,0.0118,261.6721,164.8959,328.0030,0,U,32729,999,4572,0,-.115E-5,0
ICO G1,2008-016A,2026-06-30T03:22:11.479296,1.00271083,.00022428,5.5315,36.1013,54.5926,145.2015,0,U,32763,999,6667,0,-.165E-5,0
VINASAT-1,2008-018A,2026-06-29T16:35:38.616288,1.00271427,.0001615,0.0155,326.6573,139.2527,192.7053,0,U,32767,999,6671,0,-.317E-5,0
STAR ONE C2,2008-018B,2026-06-30T12:03:21.082176,1.00269615,.00030405,1.2733,82.3560,29.0092,283.0231,0,U,32768,999,6678,0,-.267E-5,0
AMOS-3,2008-022A,2026-06-30T12:35:50.544384,1.00483945,.00026857,0.4883,86.0598,68.5278,1.8856,0,U,32794,999,8247,0,.103E-5,0
GALAXY 18 (G-18),2008-024A,2026-06-30T14:33:24.305184,1.00271794,.00032176,0.0183,30.7913,72.1389,271.0904,0,U,32951,999,4598,0,.36E-6,0
ZHONGXING-9,2008-028A,2026-06-30T11:05:33.819936,1.00270344,.0004041,0.8023,85.2058,1.3306,90.7630,0,U,33051,999,6617,0,-.238E-5,0
SKYNET 5C,2008-030A,2026-06-30T10:34:10.106400,1.00271605,.00044789,3.8212,76.8891,29.8705,312.5005,0,U,33055,999,6608,0,-.132E-5,0
TURKSAT 3A,2008-030B,2026-06-30T12:33:50.736096,1.00270779,.00054537,0.0426,74.3204,5.4612,69.2580,0,U,33056,999,5249,0,.157E-5,0
ECHOSTAR 11,2008-035A,2026-06-30T14:25:22.754784,1.00272236,.00026708,1.0383,84.0486,4.6658,296.4948,0,U,33207,999,5134,0,-.48E-6,0
SUPERBIRD-C2,2008-038A,2026-06-30T13:00:41.925888,1.00271106,.00065537,2.3938,81.1079,31.0877,137.5920,0,U,33274,999,10586,0,-.298E-5,0
INMARSAT 4-F3,2008-039A,2026-06-30T09:22:38.551008,1.00271209,.00026411,4.3041,31.6636,73.2813,216.1694,0,U,33278,999,4667,0,-.132E-5,0
NIMIQ 4,2008-044A,2026-06-30T11:58:29.049312,1.00267554,.00018786,0.0361,56.9543,46.1819,273.0953,0,U,33373,999,6511,0,0,0
GALAXY 19 (G-19),2008-045A,2026-06-30T14:18:21.014784,1.00271890,.00029349,0.0540,254.5050,218.1118,283.6294,0,U,33376,999,6503,0,-.128E-5,0
